KUIPER-00176            
1 65788U 25217AC  25298.28786308  .00035051  00000+0  94947-3 0  9998
2 65788  51.8719 298.5191 0002248  97.5511 262.5731 15.37330364  4595
KUIPER-00101            
1 65947U 25228A   25298.86646353  .00031860  00000+0  94439-3 0  9996
2 65947  51.8804 251.1851 0005944 177.9948 182.1063 15.34547888  3062
KUIPER-00113            
1 65948U 25228B   25298.86448748  .00033833  00000+0  99391-3 0  9999
2 65948  51.8807 251.1750 0006500 174.2564 185.8497 15.34798230  3067
KUIPER-00117            
1 65949U 25228C   25298.86480216  .00037548  00000+0  11027-2 0  9992
2 65949  51.8806 251.1768 0006248 174.4986 185.6069 15.34759392  3064
KUIPER-00121            
1 65950U 25228D   25298.86952126  .00036310  00000+0  10868-2 0  9996
2 65950  51.8813 251.2102 0005766 192.0019 168.0830 15.34177601  3062
KUIPER-00122            
1 65951U 25228E   25298.80524611  .00045177  00000+0  13542-2 0  9998
2 65951  51.8798 251.5260 0006060 197.7950 162.2824 15.34027218  3053
KUIPER-00123            
1 65952U 25228F   25298.86956612  .00041320  00000+0  12373-2 0  9992
2 65952  51.8798 251.2053 0005514 187.0012 173.0898 15.34103243  3060
KUIPER-00124            
1 65953U 25228G   25298.87077668  .00038475  00000+0  11571-2 0  9995
2 65953  51.8812 251.2170 0005748 201.6526 158.4217 15.33998709  3060
